[
    {
        "CCSDS_OMM_VERS": "3.0",
        "COMMENT": "GENERATED VIA SPACE-TRACK.ORG API",
        "CREATION_DATE": "2025-04-14T03:05:54",
        "ORIGINATOR": "18 SPCS",
        "OBJECT_NAME": "NAVSTAR 80 (USA 309)",
        "OBJECT_ID": "2020-078A",
        "CENTER_NAME": "EARTH",
        "REF_FRAME": "TEME",
        "TIME_SYSTEM": "UTC",
        "MEAN_ELEMENT_THEORY": "SGP4",
        "EPOCH": "2025-04-13T11:44:38.613120",
        "MEAN_MOTION": "2.00558570",
        "ECCENTRICITY": "0.00569020",
        "INCLINATION": "54.0789",
        "RA_OF_ASC_NODE": "228.2106",
        "ARG_OF_PERICENTER": "199.9609",
        "MEAN_ANOMALY": "155.5328",
        "EPHEMERIS_TYPE": "0",
        "CLASSIFICATION_TYPE": "U",
        "NORAD_CAT_ID": "46826",
        "ELEMENT_SET_NO": "999",
        "REV_AT_EPOCH": "3288",
        "BSTAR": "0.00000000000000",
        "MEAN_MOTION_DOT": "-0.00000011",
        "MEAN_MOTION_DDOT": "0.0000000000000",
        "SEMIMAJOR_AXIS": "26560.792",
        "PERIOD": "717.995",
        "APOAPSIS": "20333.793",
        "PERIAPSIS": "20031.521",
        "OBJECT_TYPE": "PAYLOAD",
        "RCS_SIZE": "LARGE",
        "COUNTRY_CODE": "US",
        "LAUNCH_DATE": "2020-11-05",
        "SITE": "AFETR",
        "DECAY_DATE": null,
        "FILE": "4701263",
        "GP_ID": "285540831",
        "TLE_LINE0": "0 NAVSTAR 80 (USA 309)",
        "TLE_LINE1": "1 46826U 20078A   25103.48933580 -.00000011  00000-0  00000-0 0  9997",
        "TLE_LINE2": "2 46826  54.0789 228.2106 0056902 199.9609 155.5328  2.00558570 32889"
    }
]